{
    "links": {
        "self": "http://www.neowsapp.com/rest/v1/neo/3654337?api_key=iIulBulltgU6a56xZRHN4H3l9WmuAYTsLGpBGhQ2"
    },
    "id": "3654337",
    "neo_reference_id": "3654337",
    "name": "(2013 WZ107)",
    "designation": "2013 WZ107",
    "nasa_jpl_url": "http://ssd.jpl.nasa.gov/sbdb.cgi?sstr=3654337",
    "absolute_magnitude_h": 27.4,
    "estimated_diameter": {
        "kilometers": {
            "estimated_diameter_min": 0.0088014652,
            "estimated_diameter_max": 0.0196806745
        },
        "meters": {
            "estimated_diameter_min": 8.801465209,
            "estimated_diameter_max": 19.6806745089
        },
        "miles": {
            "estimated_diameter_min": 0.0054689752,
            "estimated_diameter_max": 0.0122290004
        },
        "feet": {
            "estimated_diameter_min": 28.8761991163,
            "estimated_diameter_max": 64.5691441559
        }
    },
    "is_potentially_hazardous_asteroid": false,
    "close_approach_data": [
        {
            "close_approach_date": "1900-12-18",
            "close_approach_date_full": "1900-Dec-18 10:22",
            "epoch_date_close_approach": -2178625080000,
            "relative_velocity": {
                "kilometers_per_second": "16.8437625173",
                "kilometers_per_hour": "60637.5450622199",
                "miles_per_hour": "37677.812374911"
            },
            "miss_distance": {
                "astronomical": "0.3369906069",
                "lunar": "131.0893460841",
                "kilometers": "50413077.002247303",
                "miles": "31325233.4788186614"
            },
            "orbiting_body": "Earth"
        },
        {
            "close_approach_date": "1942-09-01",
            "close_approach_date_full": "1942-Sep-01 12:02",
            "epoch_date_close_approach": -862574280000,
            "relative_velocity": {
                "kilometers_per_second": "8.9762846985",
                "kilometers_per_hour": "32314.6249146742",
                "miles_per_hour": "20079.0512421208"
            },
            "miss_distance": {
                "astronomical": "0.087538091",
                "lunar": "34.052317399",
                "kilometers": "13095511.95746617",
                "miles": "8137173.804606346"
            },
            "orbiting_body": "Earth"
        },
        {
            "close_approach_date": "2013-11-20",
            "close_approach_date_full": "2013-Nov-20 10:47",
            "epoch_date_close_approach": 1384944420000,
            "relative_velocity": {
                "kilometers_per_second": "6.7110536335",
                "kilometers_per_hour": "24159.7930807162",
                "miles_per_hour": "15011.9558728484"
            },
            "miss_distance": {
                "astronomical": "0.0075204042",
                "lunar": "2.9254372338",
                "kilometers": "1125036.449859054",
                "miles": "699065.2338567852"
            },
            "orbiting_body": "Earth"
        },
        {
            "close_approach_date": "2013-11-20",
            "close_approach_date_full": "2013-Nov-20 21:33",
            "epoch_date_close_approach": 1384983180000,
            "relative_velocity": {
                "kilometers_per_second": "6.7291094594",
                "kilometers_per_hour": "24224.7940539103",
                "miles_per_hour": "15052.3449497755"
            },
            "miss_distance": {
                "astronomical": "0.0073799658",
                "lunar": "2.8708066962",
                "kilometers": "1104027.164352846",
                "miles": "686010.6691914348"
            },
            "orbiting_body": "Moon"
        }
    ],
    "orbital_data": {
        "orbit_id": "4",
        "orbit_determination_date": "2017-04-06 08:43:26",
        "first_observation_date": "2013-11-27",
        "last_observation_date": "2013-12-06",
        "data_arc_in_days": 9,
        "observations_used": 10,
        "orbit_uncertainty": "8",
        "minimum_orbit_intersection": ".00463854",
        "jupiter_tisserand_invariant": "4.460",
        "epoch_osculation": "2456624.5",
        "eccentricity": ".3623926736966498",
        "semi_major_axis": "1.504592448258973",
        "inclination": "2.019707432372177",
        "ascending_node_longitude": "243.7718300598243",
        "orbital_period": "674.1037505175632",
        "perihelion_distance": ".9593391681106156",
        "perihelion_argument": "144.9283269985479",
        "aphelion_distance": "2.049845728407331",
        "perihelion_time": "2456592.621043259321",
        "mean_anomaly": "17.02471528727303",
        "mean_motion": ".5340424225849497",
        "equinox": "J2000",
        "orbit_class": {
            "orbit_class_type": "APO",
            "orbit_class_description": "Near-Earth asteroid orbits which cross the Earth’s orbit similar to that of 1862 Apollo",
            "orbit_class_range": "a (semi-major axis) > 1.0 AU; q (perihelion) < 1.017 AU"
        }
    },
    "is_sentry_object": false
}